RSP-03                  
1 65732U 98067XL  26039.41290407  .00850192  36243-3  14321-2 0  9999
2 65732  51.6150 197.5218 0007188 298.4567  61.5719 16.02144231 22288
YOTSUBA-KULOVER         
1 65941U 98067XN  26039.26762665  .00134179  00000+0  10449-2 0  9999
2 65941  51.6243 208.6800 0004034 252.3446 107.7111 15.70780832 18861
BOTAN                   
1 65942U 98067XP  26038.70476492  .00380908  00000+0  16065-2 0  9991
2 65942  51.6182 207.8745 0006173 271.0570  88.9726 15.83838919 18827
E-KAGAKU-1              
1 65943U 98067XQ  26038.69575537  .00150314  00000+0  11799-2 0  9995
2 65943  51.6270 211.6229 0003445 263.6947  96.3658 15.70535446 18776
HRC MONOBLOCK CAMERA    
1 66052U 98067XR  26039.50057692  .00049832  00000+0  62602-3 0  9997
2 66052  51.6273 212.4988 0000995 356.9708   3.1279 15.59189079 17835
HTV-X1                  
1 66174U 25241A   26039.14821190  .00010933  00000+0  20977-3 0  9997
2 66174  51.6313 218.3910 0011020  76.1997 284.0217 15.48476524   518
SZ-21 MODULE            
1 66515U 25246C   26039.31779128  .00036164  00000+0  34090-3 0  9998
2 66515  41.4766  23.8541 0002849 283.8241  76.2283 15.66324855 13464
SHENZHOU-22             
1 66645U 25272A   26039.26676819  .00021315  00000+0  26604-3 0  9992
2 66645  41.4686  27.0109 0004988  28.6322 331.4790 15.59347217267645
SOYUZ-MS 28             
1 66664U 25275A   26039.47089640  .00010176  00000+0  19579-3 0  9995
2 66664  51.6313 216.7956 0011024  77.2796 282.9424 15.48482804551805
DUPLEX                  
1 66906U 98067XS  26039.47700515  .00035425  00000+0  53912-3 0  9997
2 66906  51.6286 215.3396 0001414  79.2821 280.8329 15.54172600 10582
ISS OBJECT XT           
1 66907U 98067XT  26039.46607951  .00112386  00000+0  12718-2 0  9997
2 66907  51.6269 213.7658 0001846 227.7728 132.3109 15.61568358 10609
ISS OBJECT XU           
1 66908U 98067XU  26039.46550497  .00110500  00000+0  12496-2 0  9999
2 66908  51.6261 213.7594 0001592 234.5732 125.5114 15.61594991 10602
