CCSDS_OMM_VERS = 2.0
CREATION_DATE  = 
ORIGINATOR     = 

OBJECT_NAME    = RSP-03
OBJECT_ID      = 1998-067XL
CENTER_NAME    = EARTH
REF_FRAME      = TEME
TIME_SYSTEM    = UTC
MEAN_ELEMENT_THEORY = SGP/SGP4

EPOCH          = 2026-02-08T09:54:34.911648
MEAN_MOTION    = 16.02144231
ECCENTRICITY   = .0007188
INCLINATION    = 51.6150
RA_OF_ASC_NODE = 197.5218
ARG_OF_PERICENTER = 298.4567
MEAN_ANOMALY   = 61.5719

EPHEMERIS_TYPE = 0
CLASSIFICATION_TYPE = U
NORAD_CAT_ID   = 65732
ELEMENT_SET_NO = 999
REV_AT_EPOCH   = 2228
BSTAR          = .14321E-2
MEAN_MOTION_DOT = .850192E-2
MEAN_MOTION_DDOT = .36243E-3

CCSDS_OMM_VERS = 2.0
CREATION_DATE  = 
ORIGINATOR     = 

OBJECT_NAME    = YOTSUBA-KULOVER
OBJECT_ID      = 1998-067XN
CENTER_NAME    = EARTH
REF_FRAME      = TEME
TIME_SYSTEM    = UTC
MEAN_ELEMENT_THEORY = SGP/SGP4

EPOCH          = 2026-02-08T06:25:22.942560
MEAN_MOTION    = 15.70780832
ECCENTRICITY   = .00040349
INCLINATION    = 51.6243
RA_OF_ASC_NODE = 208.6800
ARG_OF_PERICENTER = 252.3446
MEAN_ANOMALY   = 107.7111

EPHEMERIS_TYPE = 0
CLASSIFICATION_TYPE = U
NORAD_CAT_ID   = 65941
ELEMENT_SET_NO = 999
REV_AT_EPOCH   = 1886
BSTAR          = .10448994E-2
MEAN_MOTION_DOT = .134179E-2
MEAN_MOTION_DDOT = 0

CCSDS_OMM_VERS = 2.0
CREATION_DATE  = 
ORIGINATOR     = 

OBJECT_NAME    = BOTAN
OBJECT_ID      = 1998-067XP
CENTER_NAME    = EARTH
REF_FRAME      = TEME
TIME_SYSTEM    = UTC
MEAN_ELEMENT_THEORY = SGP/SGP4

EPOCH          = 2026-02-07T16:54:51.689088
MEAN_MOTION    = 15.83838919
ECCENTRICITY   = .00061739
INCLINATION    = 51.6182
RA_OF_ASC_NODE = 207.8745
ARG_OF_PERICENTER = 271.0570
MEAN_ANOMALY   = 88.9726

EPHEMERIS_TYPE = 0
CLASSIFICATION_TYPE = U
NORAD_CAT_ID   = 65942
ELEMENT_SET_NO = 999
REV_AT_EPOCH   = 1882
BSTAR          = .16065149E-2
MEAN_MOTION_DOT = .380908E-2
MEAN_MOTION_DDOT = 0

CCSDS_OMM_VERS = 2.0
CREATION_DATE  = 
ORIGINATOR     = 

OBJECT_NAME    = E-KAGAKU-1
OBJECT_ID      = 1998-067XQ
CENTER_NAME    = EARTH
REF_FRAME      = TEME
TIME_SYSTEM    = UTC
MEAN_ELEMENT_THEORY = SGP/SGP4

EPOCH          = 2026-02-07T16:41:53.263968
MEAN_MOTION    = 15.70535446
ECCENTRICITY   = .00034451
INCLINATION    = 51.6270
RA_OF_ASC_NODE = 211.6229
ARG_OF_PERICENTER = 263.6947
MEAN_ANOMALY   = 96.3658

EPHEMERIS_TYPE = 0
CLASSIFICATION_TYPE = U
NORAD_CAT_ID   = 65943
ELEMENT_SET_NO = 999
REV_AT_EPOCH   = 1877
BSTAR          = .11798753E-2
MEAN_MOTION_DOT = .150314E-2
MEAN_MOTION_DDOT = 0

CCSDS_OMM_VERS = 2.0
CREATION_DATE  = 
ORIGINATOR     = 

OBJECT_NAME    = HRC MONOBLOCK CAMERA
OBJECT_ID      = 1998-067XR
CENTER_NAME    = EARTH
REF_FRAME      = TEME
TIME_SYSTEM    = UTC
MEAN_ELEMENT_THEORY = SGP/SGP4

EPOCH          = 2026-02-08T12:00:49.845888
MEAN_MOTION    = 15.59189079
ECCENTRICITY   = .0000995
INCLINATION    = 51.6273
RA_OF_ASC_NODE = 212.4988
ARG_OF_PERICENTER = 356.9708
MEAN_ANOMALY   = 3.1279

EPHEMERIS_TYPE = 0
CLASSIFICATION_TYPE = U
NORAD_CAT_ID   = 66052
ELEMENT_SET_NO = 999
REV_AT_EPOCH   = 1783
BSTAR          = .62602E-3
MEAN_MOTION_DOT = .49832E-3
MEAN_MOTION_DDOT = 0

CCSDS_OMM_VERS = 2.0
CREATION_DATE  = 
ORIGINATOR     = 

OBJECT_NAME    = HTV-X1
OBJECT_ID      = 2025-241A
CENTER_NAME    = EARTH
REF_FRAME      = TEME
TIME_SYSTEM    = UTC
MEAN_ELEMENT_THEORY = SGP/SGP4

EPOCH          = 2026-02-08T03:33:25.508160
MEAN_MOTION    = 15.48476524
ECCENTRICITY   = .00110204
INCLINATION    = 51.6313
RA_OF_ASC_NODE = 218.3910
ARG_OF_PERICENTER = 76.1997
MEAN_ANOMALY   = 284.0217

EPHEMERIS_TYPE = 0
CLASSIFICATION_TYPE = U
NORAD_CAT_ID   = 66174
ELEMENT_SET_NO = 999
REV_AT_EPOCH   = 51
BSTAR          = .20977281E-3
MEAN_MOTION_DOT = .10933E-3
MEAN_MOTION_DDOT = 0

CCSDS_OMM_VERS = 2.0
CREATION_DATE  = 
ORIGINATOR     = 

OBJECT_NAME    = SZ-21 MODULE
OBJECT_ID      = 2025-246C
CENTER_NAME    = EARTH
REF_FRAME      = TEME
TIME_SYSTEM    = UTC
MEAN_ELEMENT_THEORY = SGP/SGP4

EPOCH          = 2026-02-08T07:37:37.166592
MEAN_MOTION    = 15.66324855
ECCENTRICITY   = .0002849
INCLINATION    = 41.4766
RA_OF_ASC_NODE = 23.8541
ARG_OF_PERICENTER = 283.8241
MEAN_ANOMALY   = 76.2283

EPHEMERIS_TYPE = 0
CLASSIFICATION_TYPE = U
NORAD_CAT_ID   = 66515
ELEMENT_SET_NO = 999
REV_AT_EPOCH   = 1346
BSTAR          = .3409E-3
MEAN_MOTION_DOT = .36164E-3
MEAN_MOTION_DDOT = 0

CCSDS_OMM_VERS = 2.0
CREATION_DATE  = 
ORIGINATOR     = 

OBJECT_NAME    = SHENZHOU-22
OBJECT_ID      = 2025-272A
CENTER_NAME    = EARTH
REF_FRAME      = TEME
TIME_SYSTEM    = UTC
MEAN_ELEMENT_THEORY = SGP/SGP4

EPOCH          = 2026-02-08T06:24:08.771616
MEAN_MOTION    = 15.59347217
ECCENTRICITY   = .00049883
INCLINATION    = 41.4686
RA_OF_ASC_NODE = 27.0109
ARG_OF_PERICENTER = 28.6322
MEAN_ANOMALY   = 331.4790

EPHEMERIS_TYPE = 0
CLASSIFICATION_TYPE = U
NORAD_CAT_ID   = 66645
ELEMENT_SET_NO = 999
REV_AT_EPOCH   = 26764
BSTAR          = .2660401E-3
MEAN_MOTION_DOT = .21315E-3
MEAN_MOTION_DDOT = 0

CCSDS_OMM_VERS = 2.0
CREATION_DATE  = 
ORIGINATOR     = 

OBJECT_NAME    = SOYUZ-MS 28
OBJECT_ID      = 2025-275A
CENTER_NAME    = EARTH
REF_FRAME      = TEME
TIME_SYSTEM    = UTC
MEAN_ELEMENT_THEORY = SGP/SGP4

EPOCH          = 2026-02-08T11:18:05.448960
MEAN_MOTION    = 15.48482804
ECCENTRICITY   = .0011024
INCLINATION    = 51.6313
RA_OF_ASC_NODE = 216.7956
ARG_OF_PERICENTER = 77.2796
MEAN_ANOMALY   = 282.9424

EPHEMERIS_TYPE = 0
CLASSIFICATION_TYPE = U
NORAD_CAT_ID   = 66664
ELEMENT_SET_NO = 999
REV_AT_EPOCH   = 55180
BSTAR          = .19579E-3
MEAN_MOTION_DOT = .10176E-3
MEAN_MOTION_DDOT = 0

CCSDS_OMM_VERS = 2.0
CREATION_DATE  = 
ORIGINATOR     = 

OBJECT_NAME    = DUPLEX
OBJECT_ID      = 1998-067XS
CENTER_NAME    = EARTH
REF_FRAME      = TEME
TIME_SYSTEM    = UTC
MEAN_ELEMENT_THEORY = SGP/SGP4

EPOCH          = 2026-02-08T11:26:53.244960
MEAN_MOTION    = 15.54172600
ECCENTRICITY   = .0001414
INCLINATION    = 51.6286
RA_OF_ASC_NODE = 215.3396
ARG_OF_PERICENTER = 79.2821
MEAN_ANOMALY   = 280.8329

EPHEMERIS_TYPE = 0
CLASSIFICATION_TYPE = U
NORAD_CAT_ID   = 66906
ELEMENT_SET_NO = 999
REV_AT_EPOCH   = 1058
BSTAR          = .53912E-3
MEAN_MOTION_DOT = .35425E-3
MEAN_MOTION_DDOT = 0

CCSDS_OMM_VERS = 2.0
CREATION_DATE  = 
ORIGINATOR     = 

OBJECT_NAME    = ISS OBJECT XT
OBJECT_ID      = 1998-067XT
CENTER_NAME    = EARTH
REF_FRAME      = TEME
TIME_SYSTEM    = UTC
MEAN_ELEMENT_THEORY = SGP/SGP4

EPOCH          = 2026-02-08T11:11:09.269664
MEAN_MOTION    = 15.61568358
ECCENTRICITY   = .0001846
INCLINATION    = 51.6269
RA_OF_ASC_NODE = 213.7658
ARG_OF_PERICENTER = 227.7728
MEAN_ANOMALY   = 132.3109

EPHEMERIS_TYPE = 0
CLASSIFICATION_TYPE = U
NORAD_CAT_ID   = 66907
ELEMENT_SET_NO = 999
REV_AT_EPOCH   = 1060
BSTAR          = .12718E-2
MEAN_MOTION_DOT = .112386E-2
MEAN_MOTION_DDOT = 0

CCSDS_OMM_VERS = 2.0
CREATION_DATE  = 
ORIGINATOR     = 

OBJECT_NAME    = ISS OBJECT XU
OBJECT_ID      = 1998-067XU
CENTER_NAME    = EARTH
REF_FRAME      = TEME
TIME_SYSTEM    = UTC
MEAN_ELEMENT_THEORY = SGP/SGP4

EPOCH          = 2026-02-08T11:10:19.629408
MEAN_MOTION    = 15.61594991
ECCENTRICITY   = .0001592
INCLINATION    = 51.6261
RA_OF_ASC_NODE = 213.7594
ARG_OF_PERICENTER = 234.5732
MEAN_ANOMALY   = 125.5114

EPHEMERIS_TYPE = 0
CLASSIFICATION_TYPE = U
NORAD_CAT_ID   = 66908
ELEMENT_SET_NO = 999
REV_AT_EPOCH   = 1060
BSTAR          = .12496E-2
MEAN_MOTION_DOT = .1105E-2
MEAN_MOTION_DDOT = 0

